{
    "links": {
        "self": "http://www.neowsapp.com/rest/v1/neo/3147547?api_key=iIulBulltgU6a56xZRHN4H3l9WmuAYTsLGpBGhQ2"
    },
    "id": "3147547",
    "neo_reference_id": "3147547",
    "name": "(2003 BV35)",
    "designation": "2003 BV35",
    "nasa_jpl_url": "http://ssd.jpl.nasa.gov/sbdb.cgi?sstr=3147547",
    "absolute_magnitude_h": 22.1,
    "estimated_diameter": {
        "kilometers": {
            "estimated_diameter_min": 0.1010543415,
            "estimated_diameter_max": 0.2259643771
        },
        "meters": {
            "estimated_diameter_min": 101.054341542,
            "estimated_diameter_max": 225.9643771094
        },
        "miles": {
            "estimated_diameter_min": 0.0627922373,
            "estimated_diameter_max": 0.140407711
        },
        "feet": {
            "estimated_diameter_min": 331.5431259047,
            "estimated_diameter_max": 741.3529669956
        }
    },
    "is_potentially_hazardous_asteroid": false,
    "close_approach_data": [
        {
            "close_approach_date": "2000-07-23",
            "close_approach_date_full": "2000-Jul-23 16:08",
            "epoch_date_close_approach": 964368480000,
            "relative_velocity": {
                "kilometers_per_second": "33.134081707",
                "kilometers_per_hour": "119282.6941451989",
                "miles_per_hour": "74117.6273703876"
            },
            "miss_distance": {
                "astronomical": "0.4564093514",
                "lunar": "177.5432376946",
                "kilometers": "68277866.817521518",
                "miles": "42425899.1253242284"
            },
            "orbiting_body": "Earth"
        },
        {
            "close_approach_date": "2003-01-27",
            "close_approach_date_full": "2003-Jan-27 16:40",
            "epoch_date_close_approach": 1043685600000,
            "relative_velocity": {
                "kilometers_per_second": "22.6478360082",
                "kilometers_per_hour": "81532.2096294854",
                "miles_per_hour": "50660.9443667211"
            },
            "miss_distance": {
                "astronomical": "0.0514796498",
                "lunar": "20.0255837722",
                "kilometers": "7701245.958425926",
                "miles": "4785332.3397567388"
            },
            "orbiting_body": "Earth"
        }
    ],
    "orbital_data": {
        "orbit_id": "17",
        "orbit_determination_date": "2017-04-06 09:14:23",
        "first_observation_date": "2003-01-29",
        "last_observation_date": "2003-02-09",
        "data_arc_in_days": 11,
        "observations_used": 121,
        "orbit_uncertainty": "8",
        "minimum_orbit_intersection": ".0507376",
        "jupiter_tisserand_invariant": "3.835",
        "epoch_osculation": "2452673.5",
        "eccentricity": ".5877264478371342",
        "semi_major_axis": "1.713407419988357",
        "inclination": "30.77849694813145",
        "ascending_node_longitude": "311.1875988247324",
        "orbital_period": "819.1989591325363",
        "perihelion_distance": ".706392563340811",
        "perihelion_argument": "95.66751558774148",
        "aphelion_distance": "2.720422276635902",
        "perihelion_time": "2452616.895028845666",
        "mean_anomaly": "24.87526307057156",
        "mean_motion": ".4394536833655283",
        "equinox": "J2000",
        "orbit_class": {
            "orbit_class_type": "APO",
            "orbit_class_description": "Near-Earth asteroid orbits which cross the Earth’s orbit similar to that of 1862 Apollo",
            "orbit_class_range": "a (semi-major axis) > 1.0 AU; q (perihelion) < 1.017 AU"
        }
    },
    "is_sentry_object": false
}